IRIDIUM 144             
1 43249U 18030A   23264.79656672  .00000329  00000+0  11046-3 0  9997
2 43249  86.4024 348.1020 0002002  91.4422 268.7003 14.34218331286891
IRIDIUM 149             
1 43250U 18030B   23264.66337542  .00000092  00000+0  25729-4 0  9998
2 43250  86.4023 348.1359 0001970  90.1162 270.0259 14.34218987286893
IRIDIUM 157             
1 43251U 18030C   23264.75217029  .00000467  00000+0  15953-3 0  9999
2 43251  86.4025 348.1297 0002318  96.0809 264.0651 14.34218201286884
IRIDIUM 140             
1 43252U 18030D   23264.84096939  .00000478  00000+0  16349-3 0  9997
2 43252  86.4025 348.1074 0002089  85.7368 274.4066 14.34219321286955
IRIDIUM 145             
1 43253U 18030E   23264.75851087 -.00001207  00000+0 -43820-3 0  9998
2 43253  86.4022 348.1163 0001572  90.7148 269.4228 14.34217539286874
IRIDIUM 146             
1 43254U 18030F   23264.80924370  .00000477  00000+0  16333-3 0  9996
2 43254  86.4025 348.1108 0001939  97.5941 262.5475 14.34222867286890
IRIDIUM 148             
1 43255U 18030G   23264.84730745  .00000092  00000+0  25838-4 0  9996
2 43255  86.4025 348.1230 0001907 101.8436 258.2974 14.34217937286933
IRIDIUM 142             
1 43256U 18030H   23264.74582893  .00000304  00000+0  10144-3 0  9994
2 43256  86.4022 348.0907 0002117  96.4161 263.7276 14.34219404286880
